{
 "type": "FeatureCollection",
 "features": [
  {
   "type": "Feature",
   "geometry": {
    "type": "Point",
    "coordinates": [
     4.8566667,
     52.3218333
    ]
   },
   "properties": {
    "id": "amstelveenseweg-1160",
    "at": "Amstelveenseweg 1160",
    "round": 1,
    "order": 1,
    "ask": "Still trading? Still that name?",
    "because": "stale-everything"
   }
  },
  {
   "type": "Feature",
   "geometry": {
    "type": "Point",
    "coordinates": [
     4.8641667,
     52.3433333
    ]
   },
   "properties": {
    "id": "stadionkade-107",
    "at": "Stadionkade 107",
    "round": 1,
    "order": 2,
    "ask": "Still trading? Still that name?",
    "because": "stale-everything"
   }
  },
  {
   "type": "Feature",
   "geometry": {
    "type": "Point",
    "coordinates": [
     4.8493333,
     52.3493333
    ]
   },
   "properties": {
    "id": "rietwijkerstraat-30",
    "at": "Rietwijkerstraat 30",
    "round": 1,
    "order": 3,
    "ask": "Not on the current roster and nobody knows why. What is at this address now?",
    "because": "off-roster-unexplained, stale-everything"
   }
  },
  {
   "type": "Feature",
   "geometry": {
    "type": "Point",
    "coordinates": [
     4.8476667,
     52.3521667
    ]
   },
   "properties": {
    "id": "woestduinstraat-76",
    "at": "Woestduinstraat 76",
    "round": 1,
    "order": 4,
    "ask": "Still trading? Still that name?",
    "because": "stale-everything"
   }
  },
  {
   "type": "Feature",
   "geometry": {
    "type": "Point",
    "coordinates": [
     4.8556667,
     52.354
    ]
   },
   "properties": {
    "id": "amstelveenseweg-61",
    "at": "Amstelveenseweg 61",
    "round": 1,
    "order": 5,
    "ask": "Still trading? Still that name?",
    "because": "stale-everything"
   }
  },
  {
   "type": "Feature",
   "geometry": {
    "type": "Point",
    "coordinates": [
     4.8645,
     52.3448333
    ]
   },
   "properties": {
    "id": "achillesstraat-104",
    "at": "Achillesstraat 104",
    "round": 1,
    "order": 6,
    "ask": "Still trading? Still that name?",
    "because": "stale-everything"
   }
  },
  {
   "type": "Feature",
   "geometry": {
    "type": "Point",
    "coordinates": [
     4.8663333,
     52.3605
    ]
   },
   "properties": {
    "id": "overtoom-342",
    "at": "Overtoom 342",
    "round": 1,
    "order": 7,
    "ask": "Still trading? Still that name?",
    "because": "stale-everything"
   }
  },
  {
   "type": "Feature",
   "geometry": {
    "type": "Point",
    "coordinates": [
     4.8741667,
     52.3618333
    ]
   },
   "properties": {
    "id": "vondelstraat-104",
    "at": "Vondelstraat 104",
    "round": 1,
    "order": 8,
    "ask": "Not on the current roster and nobody knows why. What is at this address now?",
    "because": "off-roster-unexplained, stale-everything"
   }
  },
  {
   "type": "Feature",
   "geometry": {
    "type": "Point",
    "coordinates": [
     4.8801667,
     52.3658333
    ]
   },
   "properties": {
    "id": "marnixstraat-383",
    "at": "Marnixstraat 383O",
    "round": 1,
    "order": 9,
    "ask": "The roster says a huisletter the door may disagree with. What does the door say?",
    "because": "huisletter-unverified, stale-everything"
   }
  },
  {
   "type": "Feature",
   "geometry": {
    "type": "Point",
    "coordinates": [
     4.8635,
     52.3638333
    ]
   },
   "properties": {
    "id": "jan-pieter-heijestraat-96",
    "at": "Jan Pieter Heijestraat 96",
    "round": 1,
    "order": 10,
    "ask": "Still trading? Still that name?",
    "because": "stale-everything"
   }
  },
  {
   "type": "Feature",
   "geometry": {
    "type": "Point",
    "coordinates": [
     4.8631667,
     52.3638333
    ]
   },
   "properties": {
    "id": "jan-pieter-heijestraat-82",
    "at": "Jan Pieter Heijestraat 82",
    "round": 1,
    "order": 11,
    "ask": "Still trading? Still that name?",
    "because": "stale-everything"
   }
  },
  {
   "type": "Feature",
   "geometry": {
    "type": "Point",
    "coordinates": [
     4.8591667,
     52.3658333
    ]
   },
   "properties": {
    "id": "witte-de-withstraat-30",
    "at": "Witte de Withstraat 30",
    "round": 1,
    "order": 12,
    "ask": "Still trading? Still that name?",
    "because": "stale-everything"
   }
  },
  {
   "type": "Feature",
   "geometry": {
    "type": "Point",
    "coordinates": [
     4.8531667,
     52.3655
    ]
   },
   "properties": {
    "id": "hoofdweg-174",
    "at": "Hoofdweg 174",
    "round": 1,
    "order": 13,
    "ask": "Still trading? Still that name?",
    "because": "stale-everything"
   }
  },
  {
   "type": "Feature",
   "geometry": {
    "type": "Point",
    "coordinates": [
     4.8553333,
     52.3621667
    ]
   },
   "properties": {
    "id": "bonairestraat-78",
    "at": "Bonairestraat 78",
    "round": 1,
    "order": 14,
    "ask": "Still trading? Still that name?",
    "because": "stale-everything"
   }
  },
  {
   "type": "Feature",
   "geometry": {
    "type": "Point",
    "coordinates": [
     4.8575,
     52.3623333
    ]
   },
   "properties": {
    "id": "baarsjesweg-239",
    "at": "Baarsjesweg 239",
    "round": 1,
    "order": 15,
    "ask": "Still trading? Still that name?",
    "because": "stale-everything"
   }
  },
  {
   "type": "Feature",
   "geometry": {
    "type": "Point",
    "coordinates": [
     4.8591667,
     52.3588333
    ]
   },
   "properties": {
    "id": "overtoom-451",
    "at": "Overtoom 451",
    "round": 1,
    "order": 16,
    "ask": "Still trading? Still that name?",
    "because": "stale-everything"
   }
  },
  {
   "type": "Feature",
   "geometry": {
    "type": "Point",
    "coordinates": [
     4.854,
     52.358
    ]
   },
   "properties": {
    "id": "surinamestraat-7",
    "at": "Surinamestraat 7",
    "round": 1,
    "order": 17,
    "ask": "Still trading? Still that name?",
    "because": "stale-everything"
   }
  },
  {
   "type": "Feature",
   "geometry": {
    "type": "Point",
    "coordinates": [
     4.8076667,
     52.3601667
    ]
   },
   "properties": {
    "id": "meer-en-vaart-177b",
    "at": "Meer En Vaart 177b",
    "round": 1,
    "order": 18,
    "ask": "Not on the current roster and nobody knows why. What is at this address now?",
    "because": "off-roster-unexplained, stale-everything"
   }
  },
  {
   "type": "Feature",
   "geometry": {
    "type": "Point",
    "coordinates": [
     4.8163333,
     52.3771667
    ]
   },
   "properties": {
    "id": "lodewijk-van-deysselstraat-37",
    "at": "Lodewijk van Deysselstraat 37",
    "round": 2,
    "order": 1,
    "ask": "Still trading? Still that name?",
    "because": "stale-everything"
   }
  },
  {
   "type": "Feature",
   "geometry": {
    "type": "Point",
    "coordinates": [
     4.8778333,
     52.3918333
    ]
   },
   "properties": {
    "id": "spaarndammerdijk-9",
    "at": "Spaarndammerdijk 9",
    "round": 2,
    "order": 2,
    "ask": "Still trading? Still that name?",
    "because": "stale-everything"
   }
  },
  {
   "type": "Feature",
   "geometry": {
    "type": "Point",
    "coordinates": [
     4.8798333,
     52.3825
    ]
   },
   "properties": {
    "id": "nassaukade-33",
    "at": "Nassaukade 33",
    "round": 2,
    "order": 3,
    "ask": "Still trading? Still that name?",
    "because": "stale-everything"
   }
  },
  {
   "type": "Feature",
   "geometry": {
    "type": "Point",
    "coordinates": [
     4.8786667,
     52.3821667
    ]
   },
   "properties": {
    "id": "2e-nassaustraat-1a",
    "at": "2e Nassaustraat 1a",
    "round": 2,
    "order": 4,
    "ask": "Not on the current roster and nobody knows why. What is at this address now?",
    "because": "off-roster-unexplained, stale-everything"
   }
  },
  {
   "type": "Feature",
   "geometry": {
    "type": "Point",
    "coordinates": [
     4.8796667,
     52.3791667
    ]
   },
   "properties": {
    "id": "marnixstraat-92",
    "at": "Marnixstraat 92H",
    "round": 2,
    "order": 5,
    "ask": "The roster says a huisletter the door may disagree with. What does the door say?",
    "because": "huisletter-unverified, stale-everything"
   }
  },
  {
   "type": "Feature",
   "geometry": {
    "type": "Point",
    "coordinates": [
     4.873,
     52.3825
    ]
   },
   "properties": {
    "id": "van-boetzelaerstraat-31",
    "at": "Van Boetzelaerstraat 31",
    "round": 2,
    "order": 6,
    "ask": "Still trading? Still that name?",
    "because": "stale-everything"
   }
  },
  {
   "type": "Feature",
   "geometry": {
    "type": "Point",
    "coordinates": [
     4.871,
     52.3826667
    ]
   },
   "properties": {
    "id": "van-hogendorpstraat-201",
    "at": "Van Hogendorpstraat 201",
    "round": 2,
    "order": 7,
    "ask": "Still trading? Still that name?",
    "because": "stale-everything"
   }
  },
  {
   "type": "Feature",
   "geometry": {
    "type": "Point",
    "coordinates": [
     4.8553333,
     52.3811667
    ]
   },
   "properties": {
    "id": "bos-en-lommerweg-163",
    "at": "Bos En Lommerweg 163",
    "round": 2,
    "order": 8,
    "ask": "Still trading? Still that name?",
    "because": "stale-everything"
   }
  },
  {
   "type": "Feature",
   "geometry": {
    "type": "Point",
    "coordinates": [
     4.8595,
     52.3726667
    ]
   },
   "properties": {
    "id": "admiraal-de-ruijterweg-104",
    "at": "Admiraal de Ruijterweg 104",
    "round": 2,
    "order": 9,
    "ask": "Still trading? Still that name?",
    "because": "stale-everything"
   }
  },
  {
   "type": "Feature",
   "geometry": {
    "type": "Point",
    "coordinates": [
     4.8571667,
     52.3743333
    ]
   },
   "properties": {
    "id": "jan-van-galenstraat-147",
    "at": "Jan van Galenstraat 147",
    "round": 2,
    "order": 10,
    "ask": "Not on the current roster and nobody knows why. What is at this address now?",
    "because": "off-roster-unexplained, stale-everything"
   }
  },
  {
   "type": "Feature",
   "geometry": {
    "type": "Point",
    "coordinates": [
     4.8491667,
     52.3728333
    ]
   },
   "properties": {
    "id": "jan-van-galenstraat-285",
    "at": "Jan van Galenstraat 285",
    "round": 2,
    "order": 11,
    "ask": "Still trading? Still that name?",
    "because": "stale-everything"
   }
  },
  {
   "type": "Feature",
   "geometry": {
    "type": "Point",
    "coordinates": [
     4.8523333,
     52.3696667
    ]
   },
   "properties": {
    "id": "hudsonstraat-156",
    "at": "Hudsonstraat 156",
    "round": 2,
    "order": 12,
    "ask": "Still trading? Still that name?",
    "because": "stale-everything"
   }
  },
  {
   "type": "Feature",
   "geometry": {
    "type": "Point",
    "coordinates": [
     4.8493333,
     52.37
    ]
   },
   "properties": {
    "id": "orteliusstraat-193",
    "at": "Orteliusstraat 193",
    "round": 2,
    "order": 13,
    "ask": "Still trading? Still that name?",
    "because": "stale-everything"
   }
  },
  {
   "type": "Feature",
   "geometry": {
    "type": "Point",
    "coordinates": [
     4.8528333,
     52.3688333
    ]
   },
   "properties": {
    "id": "hudsonstraat-138",
    "at": "Hudsonstraat 138",
    "round": 2,
    "order": 14,
    "ask": "Still trading? Still that name?",
    "because": "stale-everything"
   }
  },
  {
   "type": "Feature",
   "geometry": {
    "type": "Point",
    "coordinates": [
     4.8526667,
     52.3668333
    ]
   },
   "properties": {
    "id": "hoofdweg-226",
    "at": "Hoofdweg 226",
    "round": 2,
    "order": 15,
    "ask": "Still trading? Still that name?",
    "because": "stale-everything"
   }
  },
  {
   "type": "Feature",
   "geometry": {
    "type": "Point",
    "coordinates": [
     4.8535,
     52.3691667
    ]
   },
   "properties": {
    "id": "balboastraat-19",
    "at": "Balboastraat 19",
    "round": 2,
    "order": 16,
    "ask": "Still trading? Still that name?",
    "because": "stale-everything"
   }
  },
  {
   "type": "Feature",
   "geometry": {
    "type": "Point",
    "coordinates": [
     4.8593333,
     52.369
    ]
   },
   "properties": {
    "id": "witte-de-withstraat-106",
    "at": "Witte de Withstraat 106",
    "round": 2,
    "order": 17,
    "ask": "Still trading? Still that name?",
    "because": "stale-everything"
   }
  },
  {
   "type": "Feature",
   "geometry": {
    "type": "Point",
    "coordinates": [
     4.862,
     52.3673333
    ]
   },
   "properties": {
    "id": "chassestraat-4",
    "at": "Chassestraat 4",
    "round": 2,
    "order": 18,
    "ask": "Still trading? Still that name?",
    "because": "stale-everything"
   }
  },
  {
   "type": "Feature",
   "geometry": {
    "type": "Point",
    "coordinates": [
     4.8638333,
     52.3676667
    ]
   },
   "properties": {
    "id": "jan-hanzenstraat-109",
    "at": "Jan Hanzenstraat 109",
    "round": 3,
    "order": 1,
    "ask": "Still trading? Still that name?",
    "because": "stale-everything"
   }
  },
  {
   "type": "Feature",
   "geometry": {
    "type": "Point",
    "coordinates": [
     4.867,
     52.3688333
    ]
   },
   "properties": {
    "id": "agatha-dekenstraat-40",
    "at": "Agatha Dekenstraat 40",
    "round": 3,
    "order": 2,
    "ask": "Not on the current roster and nobody knows why. What is at this address now?",
    "because": "off-roster-unexplained, stale-everything"
   }
  },
  {
   "type": "Feature",
   "geometry": {
    "type": "Point",
    "coordinates": [
     4.8635,
     52.3751667
    ]
   },
   "properties": {
    "id": "jan-van-galenstraat-49",
    "at": "Jan van Galenstraat 49",
    "round": 3,
    "order": 3,
    "ask": "Not on the current roster and nobody knows why. What is at this address now?",
    "because": "off-roster-unexplained, stale-everything"
   }
  },
  {
   "type": "Feature",
   "geometry": {
    "type": "Point",
    "coordinates": [
     4.8711667,
     52.3751667
    ]
   },
   "properties": {
    "id": "gillis-van-ledenberchstraat-135",
    "at": "Gillis van Ledenberchstraat 135",
    "round": 3,
    "order": 4,
    "ask": "Still trading? Still that name?",
    "because": "stale-everything"
   }
  },
  {
   "type": "Feature",
   "geometry": {
    "type": "Point",
    "coordinates": [
     4.8758333,
     52.3726667
    ]
   },
   "properties": {
    "id": "marnixstraat-333",
    "at": "Marnixstraat 333H",
    "round": 3,
    "order": 5,
    "ask": "The roster says a huisletter the door may disagree with. What does the door say?",
    "because": "huisletter-unverified, stale-everything"
   }
  },
  {
   "type": "Feature",
   "geometry": {
    "type": "Point",
    "coordinates": [
     4.8725,
     52.3738333
    ]
   },
   "properties": {
    "id": "frederik-hendrikstraat-123",
    "at": "Frederik Hendrikstraat 123",
    "round": 3,
    "order": 6,
    "ask": "Still trading? Still that name?",
    "because": "stale-everything"
   }
  },
  {
   "type": "Feature",
   "geometry": {
    "type": "Point",
    "coordinates": [
     4.8735,
     52.3758333
    ]
   },
   "properties": {
    "id": "frederik-hendrikstraat-69",
    "at": "Frederik Hendrikstraat 69",
    "round": 3,
    "order": 7,
    "ask": "Still trading? Still that name?",
    "because": "stale-everything"
   }
  },
  {
   "type": "Feature",
   "geometry": {
    "type": "Point",
    "coordinates": [
     4.8746667,
     52.3778333
    ]
   },
   "properties": {
    "id": "frederik-hendrikstraat-22",
    "at": "Frederik Hendrikstraat 22",
    "round": 3,
    "order": 8,
    "ask": "Not on the current roster and nobody knows why. What is at this address now?",
    "because": "off-roster-unexplained, stale-everything"
   }
  },
  {
   "type": "Feature",
   "geometry": {
    "type": "Point",
    "coordinates": [
     4.8785,
     52.3726667
    ]
   },
   "properties": {
    "id": "rozengracht-139",
    "at": "Rozengracht 139",
    "round": 3,
    "order": 9,
    "ask": "Still trading? Still that name?",
    "because": "stale-everything"
   }
  },
  {
   "type": "Feature",
   "geometry": {
    "type": "Point",
    "coordinates": [
     4.88,
     52.3706667
    ]
   },
   "properties": {
    "id": "hazenstraat-15",
    "at": "Hazenstraat 15",
    "round": 3,
    "order": 10,
    "ask": "Not on the current roster and nobody knows why. What is at this address now?",
    "because": "off-roster-unexplained, stale-everything"
   }
  },
  {
   "type": "Feature",
   "geometry": {
    "type": "Point",
    "coordinates": [
     4.88,
     52.3695
    ]
   },
   "properties": {
    "id": "elandsgracht-53",
    "at": "Elandsgracht 53",
    "round": 3,
    "order": 11,
    "ask": "Not on the current roster and nobody knows why. What is at this address now?",
    "because": "off-roster-unexplained, stale-everything"
   }
  },
  {
   "type": "Feature",
   "geometry": {
    "type": "Point",
    "coordinates": [
     4.8765,
     52.3713333
    ]
   },
   "properties": {
    "id": "marnixstraat-194",
    "at": "Marnixstraat 194H",
    "round": 3,
    "order": 12,
    "ask": "The roster says a huisletter the door may disagree with. What does the door say?",
    "because": "huisletter-unverified, stale-everything, horse-doors-unlocated"
   }
  },
  {
   "type": "Feature",
   "geometry": {
    "type": "Point",
    "coordinates": [
     4.8715,
     52.3713333
    ]
   },
   "properties": {
    "id": "de-clercqstraat-30",
    "at": "De Clercqstraat 30",
    "round": 3,
    "order": 13,
    "ask": "Still trading? Still that name?",
    "because": "stale-everything"
   }
  },
  {
   "type": "Feature",
   "geometry": {
    "type": "Point",
    "coordinates": [
     4.874,
     52.369
    ]
   },
   "properties": {
    "id": "da-costastraat-51",
    "at": "Da Costastraat 51",
    "round": 3,
    "order": 14,
    "ask": "Not on the current roster and nobody knows why. What is at this address now?",
    "because": "off-roster-unexplained, stale-everything"
   }
  },
  {
   "type": "Feature",
   "geometry": {
    "type": "Point",
    "coordinates": [
     4.8891667,
     52.3686667
    ]
   },
   "properties": {
    "id": "handboogstraat-29",
    "at": "Handboogstraat 29H",
    "round": 3,
    "order": 15,
    "ask": "The roster says a huisletter the door may disagree with. What does the door say?",
    "because": "huisletter-unverified, stale-everything"
   }
  },
  {
   "type": "Feature",
   "geometry": {
    "type": "Point",
    "coordinates": [
     4.8881667,
     52.3688333
    ]
   },
   "properties": {
    "id": "heisteeg-6",
    "at": "Heisteeg 6",
    "round": 3,
    "order": 16,
    "ask": "Still trading? Still that name?",
    "because": "stale-everything"
   }
  },
  {
   "type": "Feature",
   "geometry": {
    "type": "Point",
    "coordinates": [
     4.8881667,
     52.3688333
    ]
   },
   "properties": {
    "id": "singel-387",
    "at": "Singel 387H",
    "round": 3,
    "order": 17,
    "ask": "The roster says a huisletter the door may disagree with. What does the door say?",
    "because": "huisletter-unverified, stale-everything"
   }
  },
  {
   "type": "Feature",
   "geometry": {
    "type": "Point",
    "coordinates": [
     4.8855,
     52.3688333
    ]
   },
   "properties": {
    "id": "huidenstraat-13",
    "at": "Huidenstraat 13",
    "round": 3,
    "order": 18,
    "ask": "Not on the current roster and nobody knows why. What is at this address now?",
    "because": "off-roster-unexplained, stale-everything"
   }
  },
  {
   "type": "Feature",
   "geometry": {
    "type": "Point",
    "coordinates": [
     4.887,
     52.3706667
    ]
   },
   "properties": {
    "id": "herengracht-287",
    "at": "Herengracht 287",
    "round": 4,
    "order": 1,
    "ask": "Not on the current roster and nobody knows why. What is at this address now?",
    "because": "off-roster-unexplained, stale-everything"
   }
  },
  {
   "type": "Feature",
   "geometry": {
    "type": "Point",
    "coordinates": [
     4.8893333,
     52.37
    ]
   },
   "properties": {
    "id": "rosmarijnsteeg-9",
    "at": "Rosmarijnsteeg 9",
    "round": 4,
    "order": 2,
    "ask": "Still trading? Still that name?",
    "because": "stale-everything"
   }
  },
  {
   "type": "Feature",
   "geometry": {
    "type": "Point",
    "coordinates": [
     4.8891667,
     52.3708333
    ]
   },
   "properties": {
    "id": "spuistraat-260",
    "at": "Spuistraat 260H",
    "round": 4,
    "order": 3,
    "ask": "The roster says a huisletter the door may disagree with. What does the door say?",
    "because": "huisletter-unverified, stale-everything"
   }
  },
  {
   "type": "Feature",
   "geometry": {
    "type": "Point",
    "coordinates": [
     4.8893333,
     52.3716667
    ]
   },
   "properties": {
    "id": "spuistraat-222",
    "at": "Spuistraat 222H",
    "round": 4,
    "order": 4,
    "ask": "The roster says a huisletter the door may disagree with. What does the door say?",
    "because": "huisletter-unverified, stale-everything"
   }
  },
  {
   "type": "Feature",
   "geometry": {
    "type": "Point",
    "coordinates": [
     4.8821667,
     52.3701667
    ]
   },
   "properties": {
    "id": "elandsgracht-3",
    "at": "Elandsgracht 3",
    "round": 4,
    "order": 5,
    "ask": "Still trading? Still that name?",
    "because": "stale-everything"
   }
  },
  {
   "type": "Feature",
   "geometry": {
    "type": "Point",
    "coordinates": [
     4.8826667,
     52.3695
    ]
   },
   "properties": {
    "id": "prinsengracht-312",
    "at": "Prinsengracht 312H",
    "round": 4,
    "order": 6,
    "ask": "The roster says a huisletter the door may disagree with. What does the door say?",
    "because": "huisletter-unverified, stale-everything"
   }
  },
  {
   "type": "Feature",
   "geometry": {
    "type": "Point",
    "coordinates": [
     4.8828333,
     52.3738333
    ]
   },
   "properties": {
    "id": "rozengracht-1a",
    "at": "Rozengracht 1a",
    "round": 4,
    "order": 7,
    "ask": "Not on the current roster and nobody knows why. What is at this address now?",
    "because": "off-roster-unexplained, stale-everything"
   }
  },
  {
   "type": "Feature",
   "geometry": {
    "type": "Point",
    "coordinates": [
     4.8815,
     52.3745
    ]
   },
   "properties": {
    "id": "1e-bloemdwarsstraat-2",
    "at": "Eerste Bloemdwarsstraat 2H",
    "round": 4,
    "order": 8,
    "ask": "The roster says a huisletter the door may disagree with. What does the door say?",
    "because": "huisletter-unverified, stale-everything"
   }
  },
  {
   "type": "Feature",
   "geometry": {
    "type": "Point",
    "coordinates": [
     4.889,
     52.3756667
    ]
   },
   "properties": {
    "id": "herengracht-133",
    "at": "Herengracht 133H",
    "round": 4,
    "order": 9,
    "ask": "The roster says a huisletter the door may disagree with. What does the door say?",
    "because": "huisletter-unverified, stale-everything"
   }
  },
  {
   "type": "Feature",
   "geometry": {
    "type": "Point",
    "coordinates": [
     4.8893333,
     52.3745
    ]
   },
   "properties": {
    "id": "oude-leliestraat-2",
    "at": "Oude Leliestraat 2",
    "round": 4,
    "order": 10,
    "ask": "Still trading? Still that name?",
    "because": "stale-everything"
   }
  },
  {
   "type": "Feature",
   "geometry": {
    "type": "Point",
    "coordinates": [
     4.8883333,
     52.373
    ]
   },
   "properties": {
    "id": "raadhuisstraat-8",
    "at": "Raadhuisstraat 8",
    "round": 4,
    "order": 11,
    "ask": "Still trading? Still that name?",
    "because": "stale-everything"
   }
  },
  {
   "type": "Feature",
   "geometry": {
    "type": "Point",
    "coordinates": [
     4.8926667,
     52.3741667
    ]
   },
   "properties": {
    "id": "gravenstraat-9",
    "at": "Gravenstraat 9",
    "round": 4,
    "order": 12,
    "ask": "Still trading? Still that name?",
    "because": "stale-everything"
   }
  },
  {
   "type": "Feature",
   "geometry": {
    "type": "Point",
    "coordinates": [
     4.8935,
     52.3743333
    ]
   },
   "properties": {
    "id": "zoutsteeg-14",
    "at": "Zoutsteeg 14",
    "round": 4,
    "order": 13,
    "ask": "Still trading? Still that name?",
    "because": "stale-everything"
   }
  },
  {
   "type": "Feature",
   "geometry": {
    "type": "Point",
    "coordinates": [
     4.8933333,
     52.3741667
    ]
   },
   "properties": {
    "id": "gravenstraat-5",
    "at": "Gravenstraat 5",
    "round": 4,
    "order": 14,
    "ask": "Not on the current roster and nobody knows why. What is at this address now?",
    "because": "off-roster-unexplained, stale-everything"
   }
  },
  {
   "type": "Feature",
   "geometry": {
    "type": "Point",
    "coordinates": [
     4.8905,
     52.3746667
    ]
   },
   "properties": {
    "id": "spuistraat-118",
    "at": "Spuistraat 118",
    "round": 4,
    "order": 15,
    "ask": "Still trading? Still that name?",
    "because": "stale-everything"
   }
  },
  {
   "type": "Feature",
   "geometry": {
    "type": "Point",
    "coordinates": [
     4.8916667,
     52.376
    ]
   },
   "properties": {
    "id": "spuistraat-80",
    "at": "Spuistraat 80H",
    "round": 4,
    "order": 16,
    "ask": "The roster says a huisletter the door may disagree with. What does the door say?",
    "because": "huisletter-unverified, stale-everything"
   }
  },
  {
   "type": "Feature",
   "geometry": {
    "type": "Point",
    "coordinates": [
     4.894,
     52.3771667
    ]
   },
   "properties": {
    "id": "spuistraat-7",
    "at": "Spuistraat 7",
    "round": 4,
    "order": 17,
    "ask": "Not on the current roster and nobody knows why. What is at this address now?",
    "because": "off-roster-unexplained, stale-everything"
   }
  },
  {
   "type": "Feature",
   "geometry": {
    "type": "Point",
    "coordinates": [
     4.8935,
     52.377
    ]
   },
   "properties": {
    "id": "spuistraat-19",
    "at": "Spuistraat 19",
    "round": 4,
    "order": 18,
    "ask": "Not on the current roster and nobody knows why. What is at this address now?",
    "because": "off-roster-unexplained, stale-everything"
   }
  },
  {
   "type": "Feature",
   "geometry": {
    "type": "Point",
    "coordinates": [
     4.8931667,
     52.376
    ]
   },
   "properties": {
    "id": "nieuwezijds-voorburgwal-59",
    "at": "Nieuwezijds Voorburgwal 59",
    "round": 5,
    "order": 1,
    "ask": "Not on the current roster and nobody knows why. What is at this address now?",
    "because": "off-roster-unexplained, stale-everything"
   }
  },
  {
   "type": "Feature",
   "geometry": {
    "type": "Point",
    "coordinates": [
     4.8928333,
     52.3761667
    ]
   },
   "properties": {
    "id": "singel-14",
    "at": "Singel 14H",
    "round": 5,
    "order": 2,
    "ask": "The roster says a huisletter the door may disagree with. What does the door say?",
    "because": "huisletter-unverified, stale-everything"
   }
  },
  {
   "type": "Feature",
   "geometry": {
    "type": "Point",
    "coordinates": [
     4.8925,
     52.3761667
    ]
   },
   "properties": {
    "id": "spuistraat-46",
    "at": "Spuistraat 46",
    "round": 5,
    "order": 3,
    "ask": "Not on the current roster and nobody knows why. What is at this address now?",
    "because": "off-roster-unexplained, stale-everything"
   }
  },
  {
   "type": "Feature",
   "geometry": {
    "type": "Point",
    "coordinates": [
     4.8925,
     52.376
    ]
   },
   "properties": {
    "id": "spuistraat-51",
    "at": "Spuistraat 51",
    "round": 5,
    "order": 4,
    "ask": "Not on the current roster and nobody knows why. What is at this address now?",
    "because": "off-roster-unexplained, stale-everything"
   }
  },
  {
   "type": "Feature",
   "geometry": {
    "type": "Point",
    "coordinates": [
     4.8923333,
     52.3755
    ]
   },
   "properties": {
    "id": "nieuwezijds-voorburgwal-87a",
    "at": "Nieuwezijds Voorburgwal 87a",
    "round": 5,
    "order": 5,
    "ask": "Not on the current roster and nobody knows why. What is at this address now?",
    "because": "off-roster-unexplained, stale-everything"
   }
  },
  {
   "type": "Feature",
   "geometry": {
    "type": "Point",
    "coordinates": [
     4.8918333,
     52.3751667
    ]
   },
   "properties": {
    "id": "nieuwezijds-voorburgwal-132",
    "at": "Nieuwezijds Voorburgwal 132",
    "round": 5,
    "order": 6,
    "ask": "Still trading? Still that name?",
    "because": "stale-everything"
   }
  },
  {
   "type": "Feature",
   "geometry": {
    "type": "Point",
    "coordinates": [
     4.8936667,
     52.3753333
    ]
   },
   "properties": {
    "id": "nieuwe-nieuwstraat-32",
    "at": "Nieuwe Nieuwstraat 32H",
    "round": 5,
    "order": 7,
    "ask": "The roster says a huisletter the door may disagree with. What does the door say?",
    "because": "huisletter-unverified, stale-everything"
   }
  },
  {
   "type": "Feature",
   "geometry": {
    "type": "Point",
    "coordinates": [
     4.896,
     52.376
    ]
   },
   "properties": {
    "id": "kolksteeg-10",
    "at": "Kolksteeg 10",
    "round": 5,
    "order": 8,
    "ask": "Not on the current roster and nobody knows why. What is at this address now?",
    "because": "off-roster-unexplained, stale-everything"
   }
  },
  {
   "type": "Feature",
   "geometry": {
    "type": "Point",
    "coordinates": [
     4.8943333,
     52.3763333
    ]
   },
   "properties": {
    "id": "nieuwezijds-kolk-21",
    "at": "Nieuwezijds Kolk 21",
    "round": 5,
    "order": 9,
    "ask": "Not on the current roster and nobody knows why. What is at this address now?",
    "because": "off-roster-unexplained, stale-everything"
   }
  },
  {
   "type": "Feature",
   "geometry": {
    "type": "Point",
    "coordinates": [
     4.8956667,
     52.3776667
    ]
   },
   "properties": {
    "id": "hekelveld-7",
    "at": "Hekelveld 7I",
    "round": 5,
    "order": 10,
    "ask": "The roster says a huisletter the door may disagree with. What does the door say?",
    "because": "huisletter-unverified, stale-everything"
   }
  },
  {
   "type": "Feature",
   "geometry": {
    "type": "Point",
    "coordinates": [
     4.8963333,
     52.3768333
    ]
   },
   "properties": {
    "id": "nieuwendijk-89",
    "at": "Nieuwendijk 89",
    "round": 5,
    "order": 11,
    "ask": "Not on the current roster and nobody knows why. What is at this address now?",
    "because": "off-roster-unexplained, stale-everything"
   }
  },
  {
   "type": "Feature",
   "geometry": {
    "type": "Point",
    "coordinates": [
     4.8978333,
     52.3766667
    ]
   },
   "properties": {
    "id": "haringpakkerssteeg-3",
    "at": "Haringpakkerssteeg 3",
    "round": 5,
    "order": 12,
    "ask": "Still trading? Still that name?",
    "because": "stale-everything"
   }
  },
  {
   "type": "Feature",
   "geometry": {
    "type": "Point",
    "coordinates": [
     4.8978333,
     52.3766667
    ]
   },
   "properties": {
    "id": "haringpakkerssteeg-8",
    "at": "Haringpakkerssteeg 8",
    "round": 5,
    "order": 13,
    "ask": "Not on the current roster and nobody knows why. What is at this address now?",
    "because": "off-roster-unexplained, stale-everything"
   }
  },
  {
   "type": "Feature",
   "geometry": {
    "type": "Point",
    "coordinates": [
     4.8971667,
     52.3755
    ]
   },
   "properties": {
    "id": "oudebrugsteeg-16",
    "at": "Oudebrugsteeg 16",
    "round": 5,
    "order": 14,
    "ask": "Not on the current roster and nobody knows why. What is at this address now?",
    "because": "off-roster-unexplained, stale-everything"
   }
  },
  {
   "type": "Feature",
   "geometry": {
    "type": "Point",
    "coordinates": [
     4.897,
     52.3755
    ]
   },
   "properties": {
    "id": "oudebrugsteeg-27",
    "at": "Oudebrugsteeg 27H",
    "round": 5,
    "order": 15,
    "ask": "the plate on the door, the cat's name, and which seat was his",
    "because": "number-unverified, coord-conflict, no-osm-link, stale-everything, seat-unlocated"
   }
  },
  {
   "type": "Feature",
   "geometry": {
    "type": "Point",
    "coordinates": [
     4.8978333,
     52.3751667
    ]
   },
   "properties": {
    "id": "warmoesstraat-53",
    "at": "Warmoesstraat 53",
    "round": 5,
    "order": 16,
    "ask": "Not on the current roster and nobody knows why. What is at this address now?",
    "because": "off-roster-unexplained, stale-everything"
   }
  },
  {
   "type": "Feature",
   "geometry": {
    "type": "Point",
    "coordinates": [
     4.8978333,
     52.3751667
    ]
   },
   "properties": {
    "id": "warmoesstraat-64",
    "at": "Warmoesstraat 64",
    "round": 5,
    "order": 17,
    "ask": "Not on the current roster and nobody knows why. What is at this address now?",
    "because": "off-roster-unexplained, stale-everything"
   }
  },
  {
   "type": "Feature",
   "geometry": {
    "type": "Point",
    "coordinates": [
     4.898,
     52.3753333
    ]
   },
   "properties": {
    "id": "oudebrugsteeg-4",
    "at": "Oudebrugsteeg 4",
    "round": 5,
    "order": 18,
    "ask": "Not on the current roster and nobody knows why. What is at this address now?",
    "because": "off-roster-unexplained, stale-everything"
   }
  },
  {
   "type": "Feature",
   "geometry": {
    "type": "Point",
    "coordinates": [
     4.8983333,
     52.3755
    ]
   },
   "properties": {
    "id": "warmoesstraat-36",
    "at": "Warmoesstraat 36",
    "round": 6,
    "order": 1,
    "ask": "Not on the current roster and nobody knows why. What is at this address now?",
    "because": "off-roster-unexplained, stale-everything"
   }
  },
  {
   "type": "Feature",
   "geometry": {
    "type": "Point",
    "coordinates": [
     4.8983333,
     52.3755
    ]
   },
   "properties": {
    "id": "warmoesstraat-37",
    "at": "Warmoesstraat 37",
    "round": 6,
    "order": 2,
    "ask": "Not on the current roster and nobody knows why. What is at this address now?",
    "because": "off-roster-unexplained, stale-everything"
   }
  },
  {
   "type": "Feature",
   "geometry": {
    "type": "Point",
    "coordinates": [
     4.8983333,
     52.3755
    ]
   },
   "properties": {
    "id": "warmoesstraat-52",
    "at": "Warmoesstraat 52",
    "round": 6,
    "order": 3,
    "ask": "Not on the current roster and nobody knows why. What is at this address now?",
    "because": "off-roster-unexplained, stale-everything"
   }
  },
  {
   "type": "Feature",
   "geometry": {
    "type": "Point",
    "coordinates": [
     4.8985,
     52.375
    ]
   },
   "properties": {
    "id": "lange-niezel-7",
    "at": "Lange Niezel 7",
    "round": 6,
    "order": 4,
    "ask": "Not on the current roster and nobody knows why. What is at this address now?",
    "because": "off-roster-unexplained, stale-everything"
   }
  },
  {
   "type": "Feature",
   "geometry": {
    "type": "Point",
    "coordinates": [
     4.8976667,
     52.374
    ]
   },
   "properties": {
    "id": "oudekerksplein-54",
    "at": "Oudekerksplein 54",
    "round": 6,
    "order": 5,
    "ask": "Not on the current roster and nobody knows why. What is at this address now?",
    "because": "off-roster-unexplained, stale-everything"
   }
  },
  {
   "type": "Feature",
   "geometry": {
    "type": "Point",
    "coordinates": [
     4.897,
     52.3745
    ]
   },
   "properties": {
    "id": "wijde-kerksteeg-3",
    "at": "Wijde Kerksteeg 3",
    "round": 6,
    "order": 6,
    "ask": "Not on the current roster and nobody knows why. What is at this address now?",
    "because": "off-roster-unexplained, stale-everything"
   }
  },
  {
   "type": "Feature",
   "geometry": {
    "type": "Point",
    "coordinates": [
     4.8971667,
     52.3746667
    ]
   },
   "properties": {
    "id": "warmoesstraat-77",
    "at": "Warmoesstraat 77",
    "round": 6,
    "order": 7,
    "ask": "Not on the current roster and nobody knows why. What is at this address now?",
    "because": "off-roster-unexplained, stale-everything"
   }
  },
  {
   "type": "Feature",
   "geometry": {
    "type": "Point",
    "coordinates": [
     4.8973333,
     52.375
    ]
   },
   "properties": {
    "id": "warmoesstraat-70",
    "at": "Warmoesstraat 70",
    "round": 6,
    "order": 8,
    "ask": "Not on the current roster and nobody knows why. What is at this address now?",
    "because": "off-roster-unexplained, stale-everything"
   }
  },
  {
   "type": "Feature",
   "geometry": {
    "type": "Point",
    "coordinates": [
     4.8973333,
     52.375
    ]
   },
   "properties": {
    "id": "warmoesstraat-73",
    "at": "Warmoesstraat 73",
    "round": 6,
    "order": 9,
    "ask": "Not on the current roster and nobody knows why. What is at this address now?",
    "because": "off-roster-unexplained, stale-everything"
   }
  },
  {
   "type": "Feature",
   "geometry": {
    "type": "Point",
    "coordinates": [
     4.8968333,
     52.3748333
    ]
   },
   "properties": {
    "id": "warmoesstraat-59",
    "at": "Warmoesstraat 59",
    "round": 6,
    "order": 10,
    "ask": "Not on the current roster and nobody knows why. What is at this address now?",
    "because": "off-roster-unexplained, stale-everything"
   }
  },
  {
   "type": "Feature",
   "geometry": {
    "type": "Point",
    "coordinates": [
     4.8963333,
     52.3748333
    ]
   },
   "properties": {
    "id": "beursstraat-27",
    "at": "Beursstraat 27",
    "round": 6,
    "order": 11,
    "ask": "Still trading? Still that name?",
    "because": "stale-everything"
   }
  },
  {
   "type": "Feature",
   "geometry": {
    "type": "Point",
    "coordinates": [
     4.8945,
     52.3723333
    ]
   },
   "properties": {
    "id": "damstraat-8",
    "at": "Damstraat 8",
    "round": 6,
    "order": 12,
    "ask": "Not on the current roster and nobody knows why. What is at this address now?",
    "because": "off-roster-unexplained, stale-everything"
   }
  },
  {
   "type": "Feature",
   "geometry": {
    "type": "Point",
    "coordinates": [
     4.8973333,
     52.3725
    ]
   },
   "properties": {
    "id": "oudezijds-voorburgwal-220",
    "at": "Oudezijds Voorburgwal 220",
    "round": 6,
    "order": 13,
    "ask": "Still trading? Still that name?",
    "because": "stale-everything"
   }
  },
  {
   "type": "Feature",
   "geometry": {
    "type": "Point",
    "coordinates": [
     4.898,
     52.3735
    ]
   },
   "properties": {
    "id": "oudezijds-voorburgwal-90",
    "at": "Oudezijds Voorburgwal 90",
    "round": 6,
    "order": 14,
    "ask": "Not on the current roster and nobody knows why. What is at this address now?",
    "because": "off-roster-unexplained, stale-everything, probable-renumbering"
   }
  },
  {
   "type": "Feature",
   "geometry": {
    "type": "Point",
    "coordinates": [
     4.898,
     52.3733333
    ]
   },
   "properties": {
    "id": "oudezijds-voorburgwal-132",
    "at": "Oudezijds Voorburgwal 132",
    "round": 6,
    "order": 15,
    "ask": "Not on the current roster and nobody knows why. What is at this address now?",
    "because": "off-roster-unexplained, stale-everything"
   }
  },
  {
   "type": "Feature",
   "geometry": {
    "type": "Point",
    "coordinates": [
     4.897,
     52.3715
    ]
   },
   "properties": {
    "id": "oude-hoogstraat-13",
    "at": "Oude Hoogstraat 13",
    "round": 6,
    "order": 16,
    "ask": "Not on the current roster and nobody knows why. What is at this address now?",
    "because": "off-roster-unexplained, stale-everything"
   }
  },
  {
   "type": "Feature",
   "geometry": {
    "type": "Point",
    "coordinates": [
     4.897,
     52.3715
    ]
   },
   "properties": {
    "id": "oude-hoogstraat-2",
    "at": "Oude Hoogstraat 2",
    "round": 6,
    "order": 17,
    "ask": "Not on the current roster and nobody knows why. What is at this address now?",
    "because": "off-roster-unexplained, stale-everything"
   }
  },
  {
   "type": "Feature",
   "geometry": {
    "type": "Point",
    "coordinates": [
     4.897,
     52.3715
    ]
   },
   "properties": {
    "id": "oude-hoogstraat-5",
    "at": "Oude Hoogstraat 5",
    "round": 6,
    "order": 18,
    "ask": "Not on the current roster and nobody knows why. What is at this address now?",
    "because": "off-roster-unexplained, stale-everything"
   }
  },
  {
   "type": "Feature",
   "geometry": {
    "type": "Point",
    "coordinates": [
     4.8978333,
     52.37
    ]
   },
   "properties": {
    "id": "kloveniersburgwal-62",
    "at": "Kloveniersburgwal 62H",
    "round": 7,
    "order": 1,
    "ask": "The roster says a huisletter the door may disagree with. What does the door say?",
    "because": "huisletter-unverified, stale-everything"
   }
  },
  {
   "type": "Feature",
   "geometry": {
    "type": "Point",
    "coordinates": [
     4.8976667,
     52.37
    ]
   },
   "properties": {
    "id": "kloveniersburgwal-60",
    "at": "Kloveniersburgwal 60H",
    "round": 7,
    "order": 2,
    "ask": "The roster says a huisletter the door may disagree with. What does the door say?",
    "because": "huisletter-unverified, stale-everything"
   }
  },
  {
   "type": "Feature",
   "geometry": {
    "type": "Point",
    "coordinates": [
     4.8961667,
     52.37
    ]
   },
   "properties": {
    "id": "rusland-16",
    "at": "Rusland 16",
    "round": 7,
    "order": 3,
    "ask": "Still trading? Still that name?",
    "because": "stale-everything"
   }
  },
  {
   "type": "Feature",
   "geometry": {
    "type": "Point",
    "coordinates": [
     4.896,
     52.3713333
    ]
   },
   "properties": {
    "id": "oudezijds-voorburgwal-189",
    "at": "Oudezijds Voorburgwal 189",
    "round": 7,
    "order": 4,
    "ask": "Still trading? Still that name?",
    "because": "stale-everything"
   }
  },
  {
   "type": "Feature",
   "geometry": {
    "type": "Point",
    "coordinates": [
     4.8956667,
     52.3715
    ]
   },
   "properties": {
    "id": "oudezijds-voorburgwal-191",
    "at": "Oudezijds Voorburgwal 191",
    "round": 7,
    "order": 5,
    "ask": "Still trading? Still that name?",
    "because": "stale-everything"
   }
  },
  {
   "type": "Feature",
   "geometry": {
    "type": "Point",
    "coordinates": [
     4.896,
     52.3718333
    ]
   },
   "properties": {
    "id": "oudezijds-voorburgwal-250",
    "at": "Oudezijds Voorburgwal 250H",
    "round": 7,
    "order": 6,
    "ask": "The roster says a huisletter the door may disagree with. What does the door say?",
    "because": "huisletter-unverified, stale-everything"
   }
  },
  {
   "type": "Feature",
   "geometry": {
    "type": "Point",
    "coordinates": [
     4.8908333,
     52.372
    ]
   },
   "properties": {
    "id": "jonge-roelensteeg-12",
    "at": "Jonge Roelensteeg 12H",
    "round": 7,
    "order": 7,
    "ask": "The roster says a huisletter the door may disagree with. What does the door say?",
    "because": "huisletter-unverified, stale-everything"
   }
  },
  {
   "type": "Feature",
   "geometry": {
    "type": "Point",
    "coordinates": [
     4.8928333,
     52.3696667
    ]
   },
   "properties": {
    "id": "langebrugsteeg-7a",
    "at": "Langebrugsteeg 7a",
    "round": 7,
    "order": 8,
    "ask": "Not on the current roster and nobody knows why. What is at this address now?",
    "because": "off-roster-unexplained, stale-everything"
   }
  },
  {
   "type": "Feature",
   "geometry": {
    "type": "Point",
    "coordinates": [
     4.8898333,
     52.3673333
    ]
   },
   "properties": {
    "id": "reguliersdwarsstraat-6",
    "at": "Reguliersdwarsstraat 6",
    "round": 7,
    "order": 9,
    "ask": "Still trading? Still that name?",
    "because": "stale-everything"
   }
  },
  {
   "type": "Feature",
   "geometry": {
    "type": "Point",
    "coordinates": [
     4.8941667,
     52.3671667
    ]
   },
   "properties": {
    "id": "amstel-8",
    "at": "Amstel 8H",
    "round": 7,
    "order": 10,
    "ask": "The roster says a huisletter the door may disagree with. What does the door say?",
    "because": "huisletter-unverified, stale-everything"
   }
  },
  {
   "type": "Feature",
   "geometry": {
    "type": "Point",
    "coordinates": [
     4.8951667,
     52.367
    ]
   },
   "properties": {
    "id": "regulierssteeg-2",
    "at": "Regulierssteeg 2",
    "round": 7,
    "order": 11,
    "ask": "Still trading? Still that name?",
    "because": "stale-everything"
   }
  },
  {
   "type": "Feature",
   "geometry": {
    "type": "Point",
    "coordinates": [
     4.8958333,
     52.367
    ]
   },
   "properties": {
    "id": "halvemaansteeg-1",
    "at": "Halvemaansteeg 1",
    "round": 7,
    "order": 12,
    "ask": "Still trading? Still that name?",
    "because": "stale-everything"
   }
  },
  {
   "type": "Feature",
   "geometry": {
    "type": "Point",
    "coordinates": [
     4.8958333,
     52.367
    ]
   },
   "properties": {
    "id": "halvemaansteeg-5",
    "at": "Halvemaansteeg 5",
    "round": 7,
    "order": 13,
    "ask": "Still trading? Still that name?",
    "because": "stale-everything"
   }
  },
  {
   "type": "Feature",
   "geometry": {
    "type": "Point",
    "coordinates": [
     4.8956667,
     52.3671667
    ]
   },
   "properties": {
    "id": "amstel-36",
    "at": "Amstel 36H",
    "round": 7,
    "order": 14,
    "ask": "The roster says a huisletter the door may disagree with. What does the door say?",
    "because": "huisletter-unverified, stale-everything"
   }
  },
  {
   "type": "Feature",
   "geometry": {
    "type": "Point",
    "coordinates": [
     4.9018333,
     52.3668333
    ]
   },
   "properties": {
    "id": "waterlooplein-345",
    "at": "Waterlooplein 345",
    "round": 7,
    "order": 15,
    "ask": "Still trading? Still that name?",
    "because": "stale-everything"
   }
  },
  {
   "type": "Feature",
   "geometry": {
    "type": "Point",
    "coordinates": [
     4.9008333,
     52.3696667
    ]
   },
   "properties": {
    "id": "sint-antoniesbreestraat-71",
    "at": "Sint Antoni\u00ebsbreestraat 71",
    "round": 7,
    "order": 16,
    "ask": "Still trading? Still that name?",
    "because": "stale-everything"
   }
  },
  {
   "type": "Feature",
   "geometry": {
    "type": "Point",
    "coordinates": [
     4.9006667,
     52.37
    ]
   },
   "properties": {
    "id": "sint-antoniesbreestraat-77",
    "at": "Sint Antoni\u00ebsbreestraat 77",
    "round": 7,
    "order": 17,
    "ask": "Still trading? Still that name?",
    "because": "stale-everything"
   }
  },
  {
   "type": "Feature",
   "geometry": {
    "type": "Point",
    "coordinates": [
     4.8986667,
     52.3713333
    ]
   },
   "properties": {
    "id": "kloveniersburgwal-42",
    "at": "Kloveniersburgwal 42A",
    "round": 7,
    "order": 18,
    "ask": "The roster says a huisletter the door may disagree with. What does the door say?",
    "because": "huisletter-unverified, stale-everything"
   }
  },
  {
   "type": "Feature",
   "geometry": {
    "type": "Point",
    "coordinates": [
     4.8991667,
     52.372
    ]
   },
   "properties": {
    "id": "kloveniersburgwal-4",
    "at": "Kloveniersburgwal 4H",
    "round": 8,
    "order": 1,
    "ask": "The roster says a huisletter the door may disagree with. What does the door say?",
    "because": "huisletter-unverified, stale-everything"
   }
  },
  {
   "type": "Feature",
   "geometry": {
    "type": "Point",
    "coordinates": [
     4.9026667,
     52.372
    ]
   },
   "properties": {
    "id": "korte-koningsstraat-2",
    "at": "Korte Koningsstraat 2",
    "round": 8,
    "order": 2,
    "ask": "Still trading? Still that name?",
    "because": "stale-everything"
   }
  },
  {
   "type": "Feature",
   "geometry": {
    "type": "Point",
    "coordinates": [
     4.9066667,
     52.3673333
    ]
   },
   "properties": {
    "id": "nieuwe-herengracht-71",
    "at": "Nieuwe Herengracht 71",
    "round": 8,
    "order": 3,
    "ask": "Still trading? Still that name?",
    "because": "stale-everything"
   }
  },
  {
   "type": "Feature",
   "geometry": {
    "type": "Point",
    "coordinates": [
     4.9003333,
     52.373
    ]
   },
   "properties": {
    "id": "nieuwmarkt-4a",
    "at": "Nieuwmarkt 4a",
    "round": 8,
    "order": 4,
    "ask": "Not on the current roster and nobody knows why. What is at this address now?",
    "because": "off-roster-unexplained, stale-everything"
   }
  },
  {
   "type": "Feature",
   "geometry": {
    "type": "Point",
    "coordinates": [
     4.9,
     52.3728333
    ]
   },
   "properties": {
    "id": "nieuwmarkt-12",
    "at": "Nieuwmarkt 12H",
    "round": 8,
    "order": 5,
    "ask": "The roster says a huisletter the door may disagree with. What does the door say?",
    "because": "huisletter-unverified, stale-everything"
   }
  },
  {
   "type": "Feature",
   "geometry": {
    "type": "Point",
    "coordinates": [
     4.9,
     52.3728333
    ]
   },
   "properties": {
    "id": "nieuwmarkt-14",
    "at": "Nieuwmarkt 14H",
    "round": 8,
    "order": 6,
    "ask": "The roster says a huisletter the door may disagree with. What does the door say?",
    "because": "huisletter-unverified, stale-everything"
   }
  },
  {
   "type": "Feature",
   "geometry": {
    "type": "Point",
    "coordinates": [
     4.899,
     52.3736667
    ]
   },
   "properties": {
    "id": "oudezijds-achterburgwal-61",
    "at": "Oudezijds Achterburgwal 61",
    "round": 8,
    "order": 7,
    "ask": "Not on the current roster and nobody knows why. What is at this address now?",
    "because": "off-roster-unexplained, stale-everything"
   }
  },
  {
   "type": "Feature",
   "geometry": {
    "type": "Point",
    "coordinates": [
     4.8993333,
     52.375
    ]
   },
   "properties": {
    "id": "lange-niezel-27",
    "at": "Lange Niezel 27",
    "round": 8,
    "order": 8,
    "ask": "Not on the current roster and nobody knows why. What is at this address now?",
    "because": "off-roster-unexplained, stale-everything"
   }
  },
  {
   "type": "Feature",
   "geometry": {
    "type": "Point",
    "coordinates": [
     4.8995,
     52.3745
    ]
   },
   "properties": {
    "id": "oudezijds-vorburgwal-47",
    "at": "Oudezijds Vorburgwal 47",
    "round": 8,
    "order": 9,
    "ask": "Not on the current roster and nobody knows why. What is at this address now?",
    "because": "off-roster-unexplained, stale-everything"
   }
  },
  {
   "type": "Feature",
   "geometry": {
    "type": "Point",
    "coordinates": [
     4.8988333,
     52.375
    ]
   },
   "properties": {
    "id": "lange-niezel-25",
    "at": "Lange Niezel 25",
    "round": 8,
    "order": 10,
    "ask": "Not on the current roster and nobody knows why. What is at this address now?",
    "because": "off-roster-unexplained, stale-everything"
   }
  },
  {
   "type": "Feature",
   "geometry": {
    "type": "Point",
    "coordinates": [
     4.8988333,
     52.3753333
    ]
   },
   "properties": {
    "id": "warmoesstraat-24",
    "at": "Warmoesstraat 24",
    "round": 8,
    "order": 11,
    "ask": "Not on the current roster and nobody knows why. What is at this address now?",
    "because": "off-roster-unexplained, stale-everything"
   }
  },
  {
   "type": "Feature",
   "geometry": {
    "type": "Point",
    "coordinates": [
     4.8995,
     52.3751667
    ]
   },
   "properties": {
    "id": "oudezijds-voorburgwal-36",
    "at": "Oudezijds Voorburgwal 36H",
    "round": 8,
    "order": 12,
    "ask": "The roster says a huisletter the door may disagree with. What does the door say?",
    "because": "huisletter-unverified, stale-everything"
   }
  },
  {
   "type": "Feature",
   "geometry": {
    "type": "Point",
    "coordinates": [
     4.9016667,
     52.3751667
    ]
   },
   "properties": {
    "id": "geldersekade-54",
    "at": "Geldersekade 54H",
    "round": 8,
    "order": 13,
    "ask": "The roster says a huisletter the door may disagree with. What does the door say?",
    "because": "huisletter-unverified, stale-everything"
   }
  },
  {
   "type": "Feature",
   "geometry": {
    "type": "Point",
    "coordinates": [
     4.9018333,
     52.3763333
    ]
   },
   "properties": {
    "id": "geldersekade-2",
    "at": "Geldersekade 2H",
    "round": 8,
    "order": 14,
    "ask": "The roster says a huisletter the door may disagree with. What does the door say?",
    "because": "huisletter-unverified, stale-everything"
   }
  },
  {
   "type": "Feature",
   "geometry": {
    "type": "Point",
    "coordinates": [
     4.9023333,
     52.3768333
    ]
   },
   "properties": {
    "id": "prins-hendrikkade-89",
    "at": "Prins Hendrikkade 89",
    "round": 8,
    "order": 15,
    "ask": "Still trading? Still that name?",
    "because": "stale-everything"
   }
  },
  {
   "type": "Feature",
   "geometry": {
    "type": "Point",
    "coordinates": [
     4.9,
     52.3765
    ]
   },
   "properties": {
    "id": "nieuwebrugsteeg-24",
    "at": "Nieuwebrugsteeg 24",
    "round": 8,
    "order": 16,
    "ask": "Not on the current roster and nobody knows why. What is at this address now?",
    "because": "off-roster-unexplained, stale-everything"
   }
  },
  {
   "type": "Feature",
   "geometry": {
    "type": "Point",
    "coordinates": [
     4.9123333,
     52.3838333
    ]
   },
   "properties": {
    "id": "ooievaarsweg-10",
    "at": "Ooievaarsweg 10",
    "round": 8,
    "order": 17,
    "ask": "Still trading? Still that name?",
    "because": "stale-everything"
   }
  },
  {
   "type": "Feature",
   "geometry": {
    "type": "Point",
    "coordinates": [
     4.8961667,
     52.378
    ]
   },
   "properties": {
    "id": "nieuwendijk-32",
    "at": "Nieuwendijk 32",
    "round": 8,
    "order": 18,
    "ask": "Not on the current roster and nobody knows why. What is at this address now?",
    "because": "off-roster-unexplained, stale-everything"
   }
  },
  {
   "type": "Feature",
   "geometry": {
    "type": "Point",
    "coordinates": [
     4.8953333,
     52.3783333
    ]
   },
   "properties": {
    "id": "nieuwendijk-30",
    "at": "Nieuwendijk 30",
    "round": 9,
    "order": 1,
    "ask": "Not on the current roster and nobody knows why. What is at this address now?",
    "because": "off-roster-unexplained, stale-everything"
   }
  },
  {
   "type": "Feature",
   "geometry": {
    "type": "Point",
    "coordinates": [
     4.8951667,
     52.3788333
    ]
   },
   "properties": {
    "id": "prins-hendrikkade-6",
    "at": "Prins Hendrikkade 6",
    "round": 9,
    "order": 2,
    "ask": "Not on the current roster and nobody knows why. What is at this address now?",
    "because": "off-roster-unexplained, stale-everything"
   }
  },
  {
   "type": "Feature",
   "geometry": {
    "type": "Point",
    "coordinates": [
     4.8946667,
     52.3788333
    ]
   },
   "properties": {
    "id": "nieuwendijk-1",
    "at": "Nieuwendijk 1",
    "round": 9,
    "order": 3,
    "ask": "Not on the current roster and nobody knows why. What is at this address now?",
    "because": "off-roster-unexplained, stale-everything"
   }
  },
  {
   "type": "Feature",
   "geometry": {
    "type": "Point",
    "coordinates": [
     4.8945,
     52.379
    ]
   },
   "properties": {
    "id": "singel-8",
    "at": "Singel 8",
    "round": 9,
    "order": 4,
    "ask": "Not on the current roster and nobody knows why. What is at this address now?",
    "because": "off-roster-unexplained, stale-everything"
   }
  },
  {
   "type": "Feature",
   "geometry": {
    "type": "Point",
    "coordinates": [
     4.892,
     52.3803333
    ]
   },
   "properties": {
    "id": "haarlemmerstraat-64",
    "at": "Haarlemmerstraat 64H",
    "round": 9,
    "order": 5,
    "ask": "The roster says a huisletter the door may disagree with. What does the door say?",
    "because": "huisletter-unverified, stale-everything"
   }
  },
  {
   "type": "Feature",
   "geometry": {
    "type": "Point",
    "coordinates": [
     4.8928333,
     52.3801667
    ]
   },
   "properties": {
    "id": "haarlemmerstraat-44",
    "at": "Haarlemmerstraat 44",
    "round": 9,
    "order": 6,
    "ask": "Still trading? Still that name?",
    "because": "stale-everything"
   }
  },
  {
   "type": "Feature",
   "geometry": {
    "type": "Point",
    "coordinates": [
     4.8928333,
     52.38
    ]
   },
   "properties": {
    "id": "haarlemmerstraat-63",
    "at": "Haarlemmerstraat 63H",
    "round": 9,
    "order": 7,
    "ask": "The roster says a huisletter the door may disagree with. What does the door say?",
    "because": "huisletter-unverified, stale-everything"
   }
  },
  {
   "type": "Feature",
   "geometry": {
    "type": "Point",
    "coordinates": [
     4.8931667,
     52.3798333
    ]
   },
   "properties": {
    "id": "haarlemmerstraat-34",
    "at": "Haarlemmerstraat 34",
    "round": 9,
    "order": 8,
    "ask": "Not on the current roster and nobody knows why. What is at this address now?",
    "because": "off-roster-unexplained, stale-everything"
   }
  },
  {
   "type": "Feature",
   "geometry": {
    "type": "Point",
    "coordinates": [
     4.8936667,
     52.3795
    ]
   },
   "properties": {
    "id": "haarlemmerstraat-6",
    "at": "Haarlemmerstraat 6",
    "round": 9,
    "order": 9,
    "ask": "Still trading? Still that name?",
    "because": "stale-everything"
   }
  },
  {
   "type": "Feature",
   "geometry": {
    "type": "Point",
    "coordinates": [
     4.894,
     52.379
    ]
   },
   "properties": {
    "id": "singel-12",
    "at": "Singel 12H",
    "round": 9,
    "order": 10,
    "ask": "The roster says a huisletter the door may disagree with. What does the door say?",
    "because": "huisletter-unverified, stale-everything"
   }
  },
  {
   "type": "Feature",
   "geometry": {
    "type": "Point",
    "coordinates": [
     4.8931667,
     52.379
    ]
   },
   "properties": {
    "id": "brouwersgracht-11",
    "at": "Brouwersgracht 11H",
    "round": 9,
    "order": 11,
    "ask": "The roster says a huisletter the door may disagree with. What does the door say?",
    "because": "huisletter-unverified, stale-everything"
   }
  },
  {
   "type": "Feature",
   "geometry": {
    "type": "Point",
    "coordinates": [
     4.8911667,
     52.3805
    ]
   },
   "properties": {
    "id": "haarlemmerstraat-102",
    "at": "Haarlemmerstraat 102H",
    "round": 9,
    "order": 12,
    "ask": "The roster says a huisletter the door may disagree with. What does the door say?",
    "because": "huisletter-unverified, stale-everything"
   }
  },
  {
   "type": "Feature",
   "geometry": {
    "type": "Point",
    "coordinates": [
     4.887,
     52.3821667
    ]
   },
   "properties": {
    "id": "binnen-oranjestraat-9",
    "at": "Binnen Oranjestraat 9H",
    "round": 9,
    "order": 13,
    "ask": "The roster says a huisletter the door may disagree with. What does the door say?",
    "because": "huisletter-unverified, stale-everything"
   }
  },
  {
   "type": "Feature",
   "geometry": {
    "type": "Point",
    "coordinates": [
     4.8863333,
     52.3815
    ]
   },
   "properties": {
    "id": "brouwersgracht-137",
    "at": "Brouwersgracht 137H",
    "round": 9,
    "order": 14,
    "ask": "The roster says a huisletter the door may disagree with. What does the door say?",
    "because": "huisletter-unverified, stale-everything"
   }
  },
  {
   "type": "Feature",
   "geometry": {
    "type": "Point",
    "coordinates": [
     4.883,
     52.3783333
    ]
   },
   "properties": {
    "id": "westerstraat-121",
    "at": "Westerstraat 121H",
    "round": 9,
    "order": 15,
    "ask": "The roster says a huisletter the door may disagree with. What does the door say?",
    "because": "huisletter-unverified, stale-everything"
   }
  },
  {
   "type": "Feature",
   "geometry": {
    "type": "Point",
    "coordinates": [
     4.8875,
     52.389
    ]
   },
   "properties": {
    "id": "barentszstraat-130",
    "at": "Barentszstraat 130",
    "round": 9,
    "order": 16,
    "ask": "Still trading? Still that name?",
    "because": "stale-everything"
   }
  },
  {
   "type": "Feature",
   "geometry": {
    "type": "Point",
    "coordinates": [
     4.9126667,
     52.3936667
    ]
   },
   "properties": {
    "id": "papaverweg-2",
    "at": "Papaverweg 2",
    "round": 9,
    "order": 17,
    "ask": "Still trading? Still that name?",
    "because": "stale-everything"
   }
  },
  {
   "type": "Feature",
   "geometry": {
    "type": "Point",
    "coordinates": [
     4.9221667,
     52.4115
    ]
   },
   "properties": {
    "id": "parlevinker-8",
    "at": "Parlevinker 8",
    "round": 9,
    "order": 18,
    "ask": "Not on the current roster and nobody knows why. What is at this address now?",
    "because": "off-roster-unexplained, stale-everything"
   }
  },
  {
   "type": "Feature",
   "geometry": {
    "type": "Point",
    "coordinates": [
     4.9531667,
     52.3938333
    ]
   },
   "properties": {
    "id": "katrijpstraat-301",
    "at": "Katrijpstraat 301",
    "round": 10,
    "order": 1,
    "ask": "Not on the current roster and nobody knows why. What is at this address now?",
    "because": "off-roster-unexplained, stale-everything"
   }
  },
  {
   "type": "Feature",
   "geometry": {
    "type": "Point",
    "coordinates": [
     4.93,
     52.3703333
    ]
   },
   "properties": {
    "id": "czaar-peterstraat-122",
    "at": "Czaar Peterstraat 122H",
    "round": 10,
    "order": 2,
    "ask": "The roster says a huisletter the door may disagree with. What does the door say?",
    "because": "huisletter-unverified, stale-everything"
   }
  },
  {
   "type": "Feature",
   "geometry": {
    "type": "Point",
    "coordinates": [
     4.9415,
     52.365
    ]
   },
   "properties": {
    "id": "niasstraat-31",
    "at": "Niasstraat 31",
    "round": 10,
    "order": 3,
    "ask": "Not on the current roster and nobody knows why. What is at this address now?",
    "because": "off-roster-unexplained, stale-everything"
   }
  },
  {
   "type": "Feature",
   "geometry": {
    "type": "Point",
    "coordinates": [
     4.9396667,
     52.3651667
    ]
   },
   "properties": {
    "id": "niasstraat-1",
    "at": "Niasstraat 1",
    "round": 10,
    "order": 4,
    "ask": "Still trading? Still that name?",
    "because": "stale-everything"
   }
  },
  {
   "type": "Feature",
   "geometry": {
    "type": "Point",
    "coordinates": [
     4.9368333,
     52.3638333
    ]
   },
   "properties": {
    "id": "javastraat-104",
    "at": "Javastraat 104",
    "round": 10,
    "order": 5,
    "ask": "Still trading? Still that name?",
    "because": "stale-everything"
   }
  },
  {
   "type": "Feature",
   "geometry": {
    "type": "Point",
    "coordinates": [
     4.922,
     52.355
    ]
   },
   "properties": {
    "id": "pretoriusstraat-67",
    "at": "Pretoriusstraat 67",
    "round": 10,
    "order": 6,
    "ask": "Still trading? Still that name?",
    "because": "stale-everything"
   }
  },
  {
   "type": "Feature",
   "geometry": {
    "type": "Point",
    "coordinates": [
     4.9193333,
     52.354
    ]
   },
   "properties": {
    "id": "krugerplein-22",
    "at": "Krugerplein 22",
    "round": 10,
    "order": 7,
    "ask": "Still trading? Still that name?",
    "because": "stale-everything"
   }
  },
  {
   "type": "Feature",
   "geometry": {
    "type": "Point",
    "coordinates": [
     4.9193333,
     52.3571667
    ]
   },
   "properties": {
    "id": "3e-oosterparkstraat-142",
    "at": "3e Oosterparkstraat 142",
    "round": 10,
    "order": 8,
    "ask": "Not on the current roster and nobody knows why. What is at this address now?",
    "because": "off-roster-unexplained, stale-everything"
   }
  },
  {
   "type": "Feature",
   "geometry": {
    "type": "Point",
    "coordinates": [
     4.9256667,
     52.3596667
    ]
   },
   "properties": {
    "id": "linnaeusstraat-83",
    "at": "Linnaeusstraat 83",
    "round": 10,
    "order": 9,
    "ask": "Not on the current roster and nobody knows why. What is at this address now?",
    "because": "off-roster-unexplained, stale-everything"
   }
  },
  {
   "type": "Feature",
   "geometry": {
    "type": "Point",
    "coordinates": [
     4.9298333,
     52.366
    ]
   },
   "properties": {
    "id": "zeeburgerdijk-33",
    "at": "Zeeburgerdijk 33",
    "round": 10,
    "order": 10,
    "ask": "Still trading? Still that name?",
    "because": "stale-everything"
   }
  },
  {
   "type": "Feature",
   "geometry": {
    "type": "Point",
    "coordinates": [
     4.9278333,
     52.3651667
    ]
   },
   "properties": {
    "id": "pieter-vlamingstraat-98",
    "at": "Pieter Vlamingstraat 98",
    "round": 10,
    "order": 11,
    "ask": "Not on the current roster and nobody knows why. What is at this address now?",
    "because": "off-roster-unexplained, stale-everything"
   }
  },
  {
   "type": "Feature",
   "geometry": {
    "type": "Point",
    "coordinates": [
     4.9258333,
     52.3653333
    ]
   },
   "properties": {
    "id": "dapperstraat-2",
    "at": "Dapperstraat 2",
    "round": 10,
    "order": 12,
    "ask": "Still trading? Still that name?",
    "because": "stale-everything"
   }
  },
  {
   "type": "Feature",
   "geometry": {
    "type": "Point",
    "coordinates": [
     4.9106667,
     52.363
    ]
   },
   "properties": {
    "id": "roetersstraat-12",
    "at": "Roetersstraat 12H",
    "round": 10,
    "order": 13,
    "ask": "The roster says a huisletter the door may disagree with. What does the door say?",
    "because": "huisletter-unverified, stale-everything"
   }
  },
  {
   "type": "Feature",
   "geometry": {
    "type": "Point",
    "coordinates": [
     4.9091667,
     52.3613333
    ]
   },
   "properties": {
    "id": "sarphatistraat-87",
    "at": "Sarphatistraat 87G",
    "round": 10,
    "order": 14,
    "ask": "The roster says a huisletter the door may disagree with. What does the door say?",
    "because": "huisletter-unverified, stale-everything"
   }
  },
  {
   "type": "Feature",
   "geometry": {
    "type": "Point",
    "coordinates": [
     4.9161667,
     52.356
    ]
   },
   "properties": {
    "id": "3e-oosterparkstraat-73",
    "at": "Derde Oosterparkstraat 73",
    "round": 10,
    "order": 15,
    "ask": "Still trading? Still that name?",
    "because": "stale-everything"
   }
  },
  {
   "type": "Feature",
   "geometry": {
    "type": "Point",
    "coordinates": [
     4.9121667,
     52.3561667
    ]
   },
   "properties": {
    "id": "wibautstraat-115",
    "at": "Wibautstraat 115",
    "round": 10,
    "order": 16,
    "ask": "Not on the current roster and nobody knows why. What is at this address now?",
    "because": "off-roster-unexplained, stale-everything"
   }
  },
  {
   "type": "Feature",
   "geometry": {
    "type": "Point",
    "coordinates": [
     4.909,
     52.356
    ]
   },
   "properties": {
    "id": "1e-oosterparkstraat-47",
    "at": "Eerste Oosterparkstraat 47",
    "round": 10,
    "order": 17,
    "ask": "Still trading? Still that name?",
    "because": "stale-everything"
   }
  },
  {
   "type": "Feature",
   "geometry": {
    "type": "Point",
    "coordinates": [
     4.9031667,
     52.3561667
    ]
   },
   "properties": {
    "id": "2e-jan-van-der-heijdenstraat-79",
    "at": "Tweede Jan van der Heijdenstraat 79",
    "round": 10,
    "order": 18,
    "ask": "Still trading? Still that name?",
    "because": "stale-everything"
   }
  },
  {
   "type": "Feature",
   "geometry": {
    "type": "Point",
    "coordinates": [
     4.9021667,
     52.3575
    ]
   },
   "properties": {
    "id": "hemonystraat-16",
    "at": "Hemonystraat 16",
    "round": 11,
    "order": 1,
    "ask": "Still trading? Still that name?",
    "because": "stale-everything"
   }
  },
  {
   "type": "Feature",
   "geometry": {
    "type": "Point",
    "coordinates": [
     4.901,
     52.3556667
    ]
   },
   "properties": {
    "id": "2e-jan-van-der-heijdenstraat-43",
    "at": "Tweede Jan van der Heijdenstraat 43",
    "round": 11,
    "order": 2,
    "ask": "Still trading? Still that name?",
    "because": "stale-everything"
   }
  },
  {
   "type": "Feature",
   "geometry": {
    "type": "Point",
    "coordinates": [
     4.8995,
     52.3646667
    ]
   },
   "properties": {
    "id": "amstelstraat-35",
    "at": "Amstelstraat 35",
    "round": 11,
    "order": 3,
    "ask": "Still trading? Still that name?",
    "because": "stale-everything"
   }
  },
  {
   "type": "Feature",
   "geometry": {
    "type": "Point",
    "coordinates": [
     4.8993333,
     52.365
    ]
   },
   "properties": {
    "id": "amstelstraat-45",
    "at": "Amstelstraat 45",
    "round": 11,
    "order": 4,
    "ask": "Not on the current roster and nobody knows why. What is at this address now?",
    "because": "off-roster-unexplained, stale-everything"
   }
  },
  {
   "type": "Feature",
   "geometry": {
    "type": "Point",
    "coordinates": [
     4.8981667,
     52.3653333
    ]
   },
   "properties": {
    "id": "utrechtsestraat-21",
    "at": "Utrechtsestraat 21",
    "round": 11,
    "order": 5,
    "ask": "Still trading? Still that name?",
    "because": "stale-everything"
   }
  },
  {
   "type": "Feature",
   "geometry": {
    "type": "Point",
    "coordinates": [
     4.8963333,
     52.3658333
    ]
   },
   "properties": {
    "id": "rembrandtplein-24",
    "at": "Rembrandtplein 24",
    "round": 11,
    "order": 6,
    "ask": "Still trading? Still that name?",
    "because": "stale-everything"
   }
  },
  {
   "type": "Feature",
   "geometry": {
    "type": "Point",
    "coordinates": [
     4.8958333,
     52.3655
    ]
   },
   "properties": {
    "id": "thorbeckeplein-28",
    "at": "Thorbeckeplein 28",
    "round": 11,
    "order": 7,
    "ask": "Still trading? Still that name?",
    "because": "stale-everything"
   }
  },
  {
   "type": "Feature",
   "geometry": {
    "type": "Point",
    "coordinates": [
     4.8975,
     52.3648333
    ]
   },
   "properties": {
    "id": "utrechtsestraat-14",
    "at": "Utrechtsestraat 14H",
    "round": 11,
    "order": 8,
    "ask": "The roster says a huisletter the door may disagree with. What does the door say?",
    "because": "huisletter-unverified, stale-everything"
   }
  },
  {
   "type": "Feature",
   "geometry": {
    "type": "Point",
    "coordinates": [
     4.8961667,
     52.3635
    ]
   },
   "properties": {
    "id": "reguliersgracht-27",
    "at": "Reguliersgracht 27H",
    "round": 11,
    "order": 9,
    "ask": "The roster says a huisletter the door may disagree with. What does the door say?",
    "because": "huisletter-unverified, stale-everything"
   }
  },
  {
   "type": "Feature",
   "geometry": {
    "type": "Point",
    "coordinates": [
     4.893,
     52.3663333
    ]
   },
   "properties": {
    "id": "reguliersdwarsstraat-70",
    "at": "Reguliersdwarsstraat 70H",
    "round": 11,
    "order": 10,
    "ask": "The roster says a huisletter the door may disagree with. What does the door say?",
    "because": "huisletter-unverified, stale-everything"
   }
  },
  {
   "type": "Feature",
   "geometry": {
    "type": "Point",
    "coordinates": [
     4.8896667,
     52.3666667
    ]
   },
   "properties": {
    "id": "reguliersdwarsstraat-29",
    "at": "Reguliersdwarsstraat 29",
    "round": 11,
    "order": 11,
    "ask": "Still trading? Still that name?",
    "because": "stale-everything"
   }
  },
  {
   "type": "Feature",
   "geometry": {
    "type": "Point",
    "coordinates": [
     4.8858333,
     52.3643333
    ]
   },
   "properties": {
    "id": "prinsengracht-476",
    "at": "Prinsengracht 476H",
    "round": 11,
    "order": 12,
    "ask": "The roster says a huisletter the door may disagree with. What does the door say?",
    "because": "huisletter-unverified, stale-everything"
   }
  },
  {
   "type": "Feature",
   "geometry": {
    "type": "Point",
    "coordinates": [
     4.8853333,
     52.3643333
    ]
   },
   "properties": {
    "id": "prinsengracht-480",
    "at": "Prinsengracht 480H",
    "round": 11,
    "order": 13,
    "ask": "The roster says a huisletter the door may disagree with. What does the door say?",
    "because": "huisletter-unverified, stale-everything"
   }
  },
  {
   "type": "Feature",
   "geometry": {
    "type": "Point",
    "coordinates": [
     4.8853333,
     52.3655
    ]
   },
   "properties": {
    "id": "kerkstraat-39",
    "at": "Kerkstraat 39",
    "round": 11,
    "order": 14,
    "ask": "Still trading? Still that name?",
    "because": "stale-everything, mascot-ungranted"
   }
  },
  {
   "type": "Feature",
   "geometry": {
    "type": "Point",
    "coordinates": [
     4.8853333,
     52.3655
    ]
   },
   "properties": {
    "id": "kerkstraat-51",
    "at": "Kerkstraat 51H",
    "round": 11,
    "order": 15,
    "ask": "The roster says a huisletter the door may disagree with. What does the door say?",
    "because": "huisletter-unverified, stale-everything"
   }
  },
  {
   "type": "Feature",
   "geometry": {
    "type": "Point",
    "coordinates": [
     4.8833333,
     52.3641667
    ]
   },
   "properties": {
    "id": "leidseplein-17",
    "at": "Leidseplein 17",
    "round": 11,
    "order": 16,
    "ask": "Still trading? Still that name?",
    "because": "stale-everything"
   }
  },
  {
   "type": "Feature",
   "geometry": {
    "type": "Point",
    "coordinates": [
     4.8846667,
     52.3643333
    ]
   },
   "properties": {
    "id": "lange-leidsedwarsstraat-41",
    "at": "Lange Leidsedwarsstraat 41",
    "round": 11,
    "order": 17,
    "ask": "Not on the current roster and nobody knows why. What is at this address now?",
    "because": "off-roster-unexplained, stale-everything"
   }
  },
  {
   "type": "Feature",
   "geometry": {
    "type": "Point",
    "coordinates": [
     4.884,
     52.364
    ]
   },
   "properties": {
    "id": "korte-leidsedwarsstraat-77",
    "at": "Korte Leidsedwarsstraat 77",
    "round": 11,
    "order": 18,
    "ask": "Still trading? Still that name?",
    "because": "stale-everything"
   }
  },
  {
   "type": "Feature",
   "geometry": {
    "type": "Point",
    "coordinates": [
     4.8861667,
     52.3616667
    ]
   },
   "properties": {
    "id": "zieseniskade-22",
    "at": "Zieseniskade 22",
    "round": 12,
    "order": 1,
    "ask": "Still trading? Still that name?",
    "because": "stale-everything"
   }
  },
  {
   "type": "Feature",
   "geometry": {
    "type": "Point",
    "coordinates": [
     4.8855,
     52.3631667
    ]
   },
   "properties": {
    "id": "korte-leidsedwarsstraat-145",
    "at": "Korte Leidsedwarsstraat 145",
    "round": 12,
    "order": 2,
    "ask": "Still trading? Still that name?",
    "because": "stale-everything"
   }
  },
  {
   "type": "Feature",
   "geometry": {
    "type": "Point",
    "coordinates": [
     4.8911667,
     52.3561667
    ]
   },
   "properties": {
    "id": "daniel-stalpertstraat-78",
    "at": "Daniel Stalpertstraat 78",
    "round": 12,
    "order": 3,
    "ask": "Still trading? Still that name?",
    "because": "stale-everything"
   }
  },
  {
   "type": "Feature",
   "geometry": {
    "type": "Point",
    "coordinates": [
     4.892,
     52.3558333
    ]
   },
   "properties": {
    "id": "gerard-doustraat-85",
    "at": "Gerard Doustraat 85",
    "round": 12,
    "order": 4,
    "ask": "Still trading? Still that name?",
    "because": "stale-everything"
   }
  },
  {
   "type": "Feature",
   "geometry": {
    "type": "Point",
    "coordinates": [
     4.891,
     52.3608333
    ]
   },
   "properties": {
    "id": "vijzelgracht-47",
    "at": "Vijzelgracht 47",
    "round": 12,
    "order": 5,
    "ask": "Not on the current roster and nobody knows why. What is at this address now?",
    "because": "off-roster-unexplained, stale-everything"
   }
  },
  {
   "type": "Feature",
   "geometry": {
    "type": "Point",
    "coordinates": [
     4.8958333,
     52.3566667
    ]
   },
   "properties": {
    "id": "gerard-doustraat-188",
    "at": "Gerard Doustraat 188",
    "round": 12,
    "order": 6,
    "ask": "Still trading? Still that name?",
    "because": "stale-everything"
   }
  },
  {
   "type": "Feature",
   "geometry": {
    "type": "Point",
    "coordinates": [
     4.8948333,
     52.3516667
    ]
   },
   "properties": {
    "id": "van-der-helstplein-8",
    "at": "Van der Helstplein 8",
    "round": 12,
    "order": 7,
    "ask": "Still trading? Still that name?",
    "because": "stale-everything"
   }
  },
  {
   "type": "Feature",
   "geometry": {
    "type": "Point",
    "coordinates": [
     4.8935,
     52.3548333
    ]
   },
   "properties": {
    "id": "1e-van-der-helststraat-70",
    "at": "Eerste van der Helststraat 70",
    "round": 12,
    "order": 8,
    "ask": "Still trading? Still that name?",
    "because": "stale-everything"
   }
  },
  {
   "type": "Feature",
   "geometry": {
    "type": "Point",
    "coordinates": [
     4.8876667,
     52.3546667
    ]
   },
   "properties": {
    "id": "albert-cuypstraat-25",
    "at": "Albert Cuypstraat 25",
    "round": 12,
    "order": 9,
    "ask": "Not on the current roster and nobody knows why. What is at this address now?",
    "because": "off-roster-unexplained, stale-everything"
   }
  },
  {
   "type": "Feature",
   "geometry": {
    "type": "Point",
    "coordinates": [
     4.889,
     52.3526667
    ]
   },
   "properties": {
    "id": "dusartstraat-14",
    "at": "Dusartstraat 14",
    "round": 12,
    "order": 10,
    "ask": "Not on the current roster and nobody knows why. What is at this address now?",
    "because": "off-roster-unexplained, stale-everything"
   }
  },
  {
   "type": "Feature",
   "geometry": {
    "type": "Point",
    "coordinates": [
     4.8871667,
     52.3536667
    ]
   },
   "properties": {
    "id": "ruysdaelkade-145",
    "at": "Ruysdaelkade 145",
    "round": 12,
    "order": 11,
    "ask": "Still trading? Still that name?",
    "because": "stale-everything"
   }
  },
  {
   "type": "Feature",
   "geometry": {
    "type": "Point",
    "coordinates": [
     4.8848333,
     52.3531667
    ]
   },
   "properties": {
    "id": "balthasar-floriszstraat-10",
    "at": "Balthasar Floriszstraat 10",
    "round": 12,
    "order": 12,
    "ask": "Still trading? Still that name?",
    "because": "stale-everything"
   }
  },
  {
   "type": "Feature",
   "geometry": {
    "type": "Point",
    "coordinates": [
     4.8893333,
     52.3521667
    ]
   },
   "properties": {
    "id": "dusartstraat-22",
    "at": "Dusartstraat 22",
    "round": 12,
    "order": 13,
    "ask": "Not on the current roster and nobody knows why. What is at this address now?",
    "because": "off-roster-unexplained, stale-everything"
   }
  },
  {
   "type": "Feature",
   "geometry": {
    "type": "Point",
    "coordinates": [
     4.8893333,
     52.351
    ]
   },
   "properties": {
    "id": "dusartstraat-57",
    "at": "Dusartstraat 57",
    "round": 12,
    "order": 14,
    "ask": "Not on the current roster and nobody knows why. What is at this address now?",
    "because": "off-roster-unexplained, stale-everything"
   }
  },
  {
   "type": "Feature",
   "geometry": {
    "type": "Point",
    "coordinates": [
     4.898,
     52.347
    ]
   },
   "properties": {
    "id": "churchilllaan-86",
    "at": "Churchilllaan 86",
    "round": 12,
    "order": 15,
    "ask": "Not on the current roster and nobody knows why. What is at this address now?",
    "because": "off-roster-unexplained, stale-everything"
   }
  },
  {
   "type": "Feature",
   "geometry": {
    "type": "Point",
    "coordinates": [
     4.9063333,
     52.3461667
    ]
   },
   "properties": {
    "id": "vechtstraat-63",
    "at": "Vechtstraat 63",
    "round": 12,
    "order": 16,
    "ask": "Still trading? Still that name?",
    "because": "stale-everything"
   }
  },
  {
   "type": "Feature",
   "geometry": {
    "type": "Point",
    "coordinates": [
     4.9055,
     52.3485
    ]
   },
   "properties": {
    "id": "vechtstraat-9",
    "at": "Vechtstraat 9",
    "round": 12,
    "order": 17,
    "ask": "Still trading? Still that name?",
    "because": "stale-everything"
   }
  },
  {
   "type": "Feature",
   "geometry": {
    "type": "Point",
    "coordinates": [
     4.8995,
     52.3535
    ]
   },
   "properties": {
    "id": "van-ostadestraat-290",
    "at": "Van Ostadestraat 290",
    "round": 12,
    "order": 18,
    "ask": "Still trading? Still that name?",
    "because": "stale-everything"
   }
  },
  {
   "type": "Feature",
   "geometry": {
    "type": "Point",
    "coordinates": [
     4.9015,
     52.3545
    ]
   },
   "properties": {
    "id": "van-woustraat-87",
    "at": "Van Woustraat 87",
    "round": 13,
    "order": 1,
    "ask": "Still trading? Still that name?",
    "because": "stale-everything"
   }
  },
  {
   "type": "Feature",
   "geometry": {
    "type": "Point",
    "coordinates": [
     4.9026667,
     52.353
    ]
   },
   "properties": {
    "id": "van-woustraat-147",
    "at": "Van Woustraat 147",
    "round": 13,
    "order": 2,
    "ask": "Still trading? Still that name?",
    "because": "stale-everything"
   }
  },
  {
   "type": "Feature",
   "geometry": {
    "type": "Point",
    "coordinates": [
     4.9035,
     52.3523333
    ]
   },
   "properties": {
    "id": "tolstraat-91",
    "at": "Tolstraat 91",
    "round": 13,
    "order": 3,
    "ask": "Still trading? Still that name?",
    "because": "stale-everything"
   }
  },
  {
   "type": "Feature",
   "geometry": {
    "type": "Point",
    "coordinates": [
     4.9035,
     52.3511667
    ]
   },
   "properties": {
    "id": "van-woustraat-193",
    "at": "Van Woustraat 193",
    "round": 13,
    "order": 4,
    "ask": "Still trading? Still that name?",
    "because": "stale-everything"
   }
  },
  {
   "type": "Feature",
   "geometry": {
    "type": "Point",
    "coordinates": [
     4.9115,
     52.3466667
    ]
   },
   "properties": {
    "id": "amsteldijk-139",
    "at": "Amsteldijk 139",
    "round": 13,
    "order": 5,
    "ask": "Still trading? Still that name?",
    "because": "stale-everything"
   }
  },
  {
   "type": "Feature",
   "geometry": {
    "type": "Point",
    "coordinates": [
     4.9198333,
     52.3355
    ]
   },
   "properties": {
    "id": "daniel-goedkoopstraat-1",
    "at": "Daniel Goedkoopstraat 1",
    "round": 13,
    "order": 6,
    "ask": "Not on the current roster and nobody knows why. What is at this address now?",
    "because": "off-roster-unexplained, stale-everything"
   }
  }
 ]
}